{"type": "FeatureCollection", "features": [ {"type": "Feature", "properties": {"norad_id": 41785, "name": "ALSAT 1B", "group": "resource", "lat": 45.829340539903015, "lon": -167.56759922173896, "alt_km": 645.3623395840987, "timestamp": "2025-12-18T19:29:52.200521+00:00", "meta": {"OBJECT_NAME": "ALSAT 1B", "OBJECT_ID": "2016-059C", "EPOCH": "2025-12-18T07:28:29.527104", "MEAN_MOTION": 14.72080955, "ECCENTRICITY": 0.00107719, "INCLINATION": 97.7812, "RA_OF_ASC_NODE": 3.8614, "ARG_OF_PERICENTER": 87.5119, "MEAN_ANOMALY": 272.7322, "EPHEMERIS_TYPE": 0, "CLASSIFICATION_TYPE": "U", "NORAD_CAT_ID": 41785, "ELEMENT_SET_NO": 999, "REV_AT_EPOCH": 49396, "BSTAR": 4.6479206e-05, "MEAN_MOTION_DOT": 2.45e-06, "MEAN_MOTION_DDOT": 0}, "tle": {"line1": "1 41785U 16059C   25352.31145286  .00000245  00000+0  46479-4 0  9997", "line2": "2 41785  97.7812   3.8614 0010771  87.5119 272.7322 14.72080955493967"}}, "geometry": {"type": "Point", "coordinates": [-167.56759922173896, 45.829340539903015]}}, {"type": "Feature", "properties": {"norad_id": 41787, "name": "PATHFINDER 1", "group": "resource", "lat": 69.87995138831555, "lon": -162.68212179424492, "alt_km": 648.1204438643736, "timestamp": "2025-12-18T19:29:52.200531+00:00", "meta": {"OBJECT_NAME": "PATHFINDER 1", "OBJECT_ID": "2016-059E", "EPOCH": "2025-12-18T05:54:52.140384", "MEAN_MOTION": 14.67330848, "ECCENTRICITY": 0.00299185, "INCLINATION": 97.8136, "RA_OF_ASC_NODE": 354.7645, "ARG_OF_PERICENTER": 64.47, "MEAN_ANOMALY": 295.9594, "EPHEMERIS_TYPE": 0, "CLASSIFICATION_TYPE": "U", "NORAD_CAT_ID": 41787, "ELEMENT_SET_NO": 999, "REV_AT_EPOCH": 49317, "BSTAR": 0.00012363224, "MEAN_MOTION_DOT": 6.56e-06, "MEAN_MOTION_DDOT": 0}, "tle": {"line1": "1 41787U 16059E   25352.24643681  .00000656  00000+0  12363-3 0  9993", "line2": "2 41787  97.8136 354.7645 0029918  64.4700 295.9594 14.67330848493178"}}, "geometry": {"type": "Point", "coordinates": [-162.68212179424492, 69.87995138831555]}}, {"type": "Feature", "properties": {"norad_id": 41790, "name": "SCATSAT 1", "group": "resource", "lat": -5.88212940621782, "lon": 50.40384304331458, "alt_km": 652.649894950855, "timestamp": "2025-12-18T19:29:52.200541+00:00", "meta": {"OBJECT_NAME": "SCATSAT 1", "OBJECT_ID": "2016-059H", "EPOCH": "2025-12-18T03:17:13.990272", "MEAN_MOTION": 14.78954319, "ECCENTRICITY": 0.00564039, "INCLINATION": 98.1458, "RA_OF_ASC_NODE": 48.8745, "ARG_OF_PERICENTER": 110.9556, "MEAN_ANOMALY": 249.7703, "EPHEMERIS_TYPE": 0, "CLASSIFICATION_TYPE": "U", "NORAD_CAT_ID": 41790, "ELEMENT_SET_NO": 999, "REV_AT_EPOCH": 7482, "BSTAR": 0.0001683291, "MEAN_MOTION_DOT": 1.219e-05, "MEAN_MOTION_DDOT": 0}, "tle": {"line1": "1 41790U 16059H   25352.13696748  .00001219  00000+0  16833-3 0  9999", "line2": "2 41790  98.1458  48.8745 0056403 110.9556 249.7703 14.78954319 74823"}}, "geometry": {"type": "Point", "coordinates": [50.40384304331458, -5.88212940621782]}}, {"type": "Feature", "properties": {"norad_id": 41875, "name": "GOKTURK 1A", "group": "resource", "lat": 81.12566105227958, "lon": 178.59636028445217, "alt_km": 675.8773320390237, "timestamp": "2025-12-18T19:29:52.200551+00:00", "meta": {"OBJECT_NAME": "GOKTURK 1A", "OBJECT_ID": "2016-073A", "EPOCH": "2025-12-18T05:58:14.270592", "MEAN_MOTION": 14.62786205, "ECCENTRICITY": 0.0001249, "INCLINATION": 98.1433, "RA_OF_ASC_NODE": 244.5404, "ARG_OF_PERICENTER": 79.5185, "MEAN_ANOMALY": 280.6158, "EPHEMERIS_TYPE": 0, "CLASSIFICATION_TYPE": "U", "NORAD_CAT_ID": 41875, "ELEMENT_SET_NO": 999, "REV_AT_EPOCH": 48237, "BSTAR": 0.00010390178, "MEAN_MOTION_DOT": 4.83e-06, "MEAN_MOTION_DDOT": 0}, "tle": {"line1": "1 41875U 16073A   25352.24877628  .00000483  00000+0  10390-3 0  9993", "line2": "2 41875  98.1433 244.5404 0001249  79.5185 280.6158 14.62786205482374"}}, "geometry": {"type": "Point", "coordinates": [178.59636028445217, 81.12566105227958]}}, {"type": "Feature", "properties": {"norad_id": 41877, "name": "RESOURCESAT-2A", "group": "resource", "lat": -42.851538267395156, "lon": 70.87177202145048, "alt_km": 826.5312947145931, "timestamp": "2025-12-18T19:29:52.200561+00:00", "meta": {"OBJECT_NAME": "RESOURCESAT-2A", "OBJECT_ID": "2016-074A", "EPOCH": "2025-12-18T06:11:18.664224", "MEAN_MOTION": 14.21602085, "ECCENTRICITY": 0.00013469, "INCLINATION": 98.7755, "RA_OF_ASC_NODE": 62.0818, "ARG_OF_PERICENTER": 228.1311, "MEAN_ANOMALY": 131.9752, "EPHEMERIS_TYPE": 0, "CLASSIFICATION_TYPE": "U", "NORAD_CAT_ID": 41877, "ELEMENT_SET_NO": 999, "REV_AT_EPOCH": 46859, "BSTAR": 0.00013131429, "MEAN_MOTION_DOT": 2.44e-06, "MEAN_MOTION_DDOT": 0}, "tle": {"line1": "1 41877U 16074A   25352.25785491  .00000244  00000+0  13131-3 0  9994", "line2": "2 41877  98.7755  62.0818 0001346 228.1311 131.9752 14.21602085468596"}}, "geometry": {"type": "Point", "coordinates": [70.87177202145048, -42.851538267395156]}}, {"type": "Feature", "properties": {"norad_id": 41948, "name": "CARTOSAT-2D", "group": "resource", "lat": -64.08632620664287, "lon": 65.81786757481198, "alt_km": 518.1811556426746, "timestamp": "2025-12-18T19:29:52.200571+00:00", "meta": {"OBJECT_NAME": "CARTOSAT-2D", "OBJECT_ID": "2017-008A", "EPOCH": "2025-12-18T07:08:20.202720", "MEAN_MOTION": 15.19315271, "ECCENTRICITY": 0.00050898, "INCLINATION": 97.4389, "RA_OF_ASC_NODE": 49.7108, "ARG_OF_PERICENTER": 146.2571, "MEAN_ANOMALY": 213.8989, "EPHEMERIS_TYPE": 0, "CLASSIFICATION_TYPE": "U", "NORAD_CAT_ID": 41948, "ELEMENT_SET_NO": 999, "REV_AT_EPOCH": 49011, "BSTAR": 0.00023147893, "MEAN_MOTION_DOT": 4.821e-05, "MEAN_MOTION_DDOT": 0}, "tle": {"line1": "1 41948U 17008A   25352.29745605  .00004821  00000+0  23148-3 0  9992", "line2": "2 41948  97.4389  49.7108 0005089 146.2571 213.8989 15.19315271490115"}}, "geometry": {"type": "Point", "coordinates": [65.81786757481198, -64.08632620664287]}}, {"type": "Feature", "properties": {"norad_id": 42063, "name": "SENTINEL-2B", "group": "resource", "lat": 52.784643905919765, "lon": -103.37199323557087, "alt_km": 783.3448033469904, "timestamp": "2025-12-18T19:29:52.200581+00:00", "meta": {"OBJECT_NAME": "SENTINEL-2B", "OBJECT_ID": "2017-013A", "EPOCH": "2025-12-18T07:09:41.317632", "MEAN_MOTION": 14.30818592, "ECCENTRICITY": 0.00011484, "INCLINATION": 98.5715, "RA_OF_ASC_NODE": 64.6666, "ARG_OF_PERICENTER": 93.6288, "MEAN_ANOMALY": 266.5027, "EPHEMERIS_TYPE": 0, "CLASSIFICATION_TYPE": "U", "NORAD_CAT_ID": 42063, "ELEMENT_SET_NO": 999, "REV_AT_EPOCH": 45877, "BSTAR": 8.693306e-05, "MEAN_MOTION_DOT": 1.84e-06, "MEAN_MOTION_DDOT": 0}, "tle": {"line1": "1 42063U 17013A   25352.29839488  .00000184  00000+0  86933-4 0  9990", "line2": "2 42063  98.5715  64.6666 0001148  93.6288 266.5027 14.30818592458776"}}, "geometry": {"type": "Point", "coordinates": [-103.37199323557087, 52.784643905919765]}}, {"type": "Feature", "properties": {"norad_id": 42767, "name": "CARTOSAT-2E", "group": "resource", "lat": -24.317899430957272, "lon": -133.07211073174477, "alt_km": 512.0607827410513, "timestamp": "2025-12-18T19:29:52.200590+00:00", "meta": {"OBJECT_NAME": "CARTOSAT-2E", "OBJECT_ID": "2017-036C", "EPOCH": "2025-12-18T07:32:08.138976", "MEAN_MOTION": 15.19252944, "ECCENTRICITY": 0.00024089, "INCLINATION": 97.4552, "RA_OF_ASC_NODE": 49.8284, "ARG_OF_PERICENTER": 211.9764, "MEAN_ANOMALY": 148.1325, "EPHEMERIS_TYPE": 0, "CLASSIFICATION_TYPE": "U", "NORAD_CAT_ID": 42767, "ELEMENT_SET_NO": 999, "REV_AT_EPOCH": 47068, "BSTAR": 0.00021830463, "MEAN_MOTION_DOT": 4.533e-05, "MEAN_MOTION_DDOT": 0}, "tle": {"line1": "1 42767U 17036C   25352.31398309  .00004533  00000+0  21830-3 0  9997", "line2": "2 42767  97.4552  49.8284 0002408 211.9764 148.1325 15.19252944470680"}}, "geometry": {"type": "Point", "coordinates": [-133.07211073174477, -24.317899430957272]}}, {"type": "Feature", "properties": {"norad_id": 42920, "name": "FORMOSAT-5", "group": "resource", "lat": -26.553565384966355, "lon": -117.14544090083207, "alt_km": 726.9662723625415, "timestamp": "2025-12-18T19:29:52.200600+00:00", "meta": {"OBJECT_NAME": "FORMOSAT-5", "OBJECT_ID": "2017-049A", "EPOCH": "2025-12-18T05:18:16.541856", "MEAN_MOTION": 14.50763886, "ECCENTRICITY": 0.00098605, "INCLINATION": 98.2448, "RA_OF_ASC_NODE": 66.4306, "ARG_OF_PERICENTER": 282.9943, "MEAN_ANOMALY": 77.015, "EPHEMERIS_TYPE": 0, "CLASSIFICATION_TYPE": "U", "NORAD_CAT_ID": 42920, "ELEMENT_SET_NO": 999, "REV_AT_EPOCH": 44043, "BSTAR": 5.8027812e-05, "MEAN_MOTION_DOT": 1.85e-06, "MEAN_MOTION_DDOT": 0}, "tle": {"line1": "1 42920U 17049A   25352.22102479  .00000185  00000+0  58028-4 0  9992", "line2": "2 42920  98.2448  66.4306 0009860 282.9943  77.0150 14.50763886440432"}}, "geometry": {"type": "Point", "coordinates": [-117.14544090083207, -26.553565384966355]}}, {"type": "Feature", "properties": {"norad_id": 42969, "name": "SENTINEL-5P", "group": "resource", "lat": -78.61286616578485, "lon": -18.546302780098124, "alt_km": 835.0115481499834, "timestamp": "2025-12-18T19:29:52.200611+00:00", "meta": {"OBJECT_NAME": "SENTINEL-5P", "OBJECT_ID": "2017-064A", "EPOCH": "2025-12-18T06:21:13.586112", "MEAN_MOTION": 14.19518903, "ECCENTRICITY": 0.00010049, "INCLINATION": 98.7791, "RA_OF_ASC_NODE": 290.8, "ARG_OF_PERICENTER": 90.1116, "MEAN_ANOMALY": 270.0175, "EPHEMERIS_TYPE": 0, "CLASSIFICATION_TYPE": "U", "NORAD_CAT_ID": 42969, "ELEMENT_SET_NO": 999, "REV_AT_EPOCH": 42389, "BSTAR": 4.1505039e-05, "MEAN_MOTION_DOT": 4.3e-07, "MEAN_MOTION_DDOT": 0}, "tle": {"line1": "1 42969U 17064A   25352.26474058  .00000043  00000+0  41505-4 0  9996", "line2": "2 42969  98.7791 290.8000 0001004  90.1116 270.0175 14.19518903423894"}}, "geometry": {"type": "Point", "coordinates": [-18.546302780098124, -78.61286616578485]}}]}